{
  "type": "FeatureCollection",
  "features": [
    {
      "type": "Feature",
      "properties": {
        "norad_id": 56564,
        "name": "BEIDOU-3 G4 (C62)",
        "group": "beidou",
        "lat": NaN,
        "lon": NaN,
        "alt_km": NaN,
        "timestamp": "2025-12-01T03:12:44.536098+00:00",
        "meta": {
          "OBJECT_NAME": "BEIDOU-3 G4 (C62)",
          "OBJECT_ID": "2023-066A",
          "EPOCH": "2025-11-30T19:44:29.116608",
          "MEAN_MOTION": 1.00271249,
          "ECCENTRICITY": 0.0003454,
          "INCLINATION": 0.8432,
          "RA_OF_ASC_NODE": 301.0056,
          "ARG_OF_PERICENTER": 232.1996,
          "MEAN_ANOMALY": 352.9397,
          "EPHEMERIS_TYPE": 0,
          "CLASSIFICATION_TYPE": "U",
          "NORAD_CAT_ID": 56564,
          "ELEMENT_SET_NO": 999,
          "REV_AT_EPOCH": 940,
          "BSTAR": 0,
          "MEAN_MOTION_DOT": -8.9e-07,
          "MEAN_MOTION_DDOT": 0
        }
      },
      "geometry": {
        "type": "Point",
        "coordinates": [
          NaN,
          NaN
        ]
      }
    },
    {
      "type": "Feature",
      "properties": {
        "norad_id": 58654,
        "name": "BEIDOU-3 M28 (C50)",
        "group": "beidou",
        "lat": NaN,
        "lon": NaN,
        "alt_km": NaN,
        "timestamp": "2025-12-01T03:12:44.536619+00:00",
        "meta": {
          "OBJECT_NAME": "BEIDOU-3 M28 (C50)",
          "OBJECT_ID": "2023-207A",
          "EPOCH": "2025-11-29T00:20:18.571776",
          "MEAN_MOTION": 1.86229638,
          "ECCENTRICITY": 0.00018783,
          "INCLINATION": 55.5726,
          "RA_OF_ASC_NODE": 69.0664,
          "ARG_OF_PERICENTER": 263.2463,
          "MEAN_ANOMALY": 96.7424,
          "EPHEMERIS_TYPE": 0,
          "CLASSIFICATION_TYPE": "U",
          "NORAD_CAT_ID": 58654,
          "ELEMENT_SET_NO": 999,
          "REV_AT_EPOCH": 1311,
          "BSTAR": 0,
          "MEAN_MOTION_DOT": -2.5e-07,
          "MEAN_MOTION_DDOT": 0
        }
      },
      "geometry": {
        "type": "Point",
        "coordinates": [
          NaN,
          NaN
        ]
      }
    },
    {
      "type": "Feature",
      "properties": {
        "norad_id": 58655,
        "name": "BEIDOU-3 M26 (C48)",
        "group": "beidou",
        "lat": NaN,
        "lon": NaN,
        "alt_km": NaN,
        "timestamp": "2025-12-01T03:12:44.536630+00:00",
        "meta": {
          "OBJECT_NAME": "BEIDOU-3 M26 (C48)",
          "OBJECT_ID": "2023-207B",
          "EPOCH": "2025-11-29T21:15:29.587968",
          "MEAN_MOTION": 1.86231123,
          "ECCENTRICITY": 0.00033719,
          "INCLINATION": 55.5753,
          "RA_OF_ASC_NODE": 69.0231,
          "ARG_OF_PERICENTER": 249.3814,
          "MEAN_ANOMALY": 110.59,
          "EPHEMERIS_TYPE": 0,
          "CLASSIFICATION_TYPE": "U",
          "NORAD_CAT_ID": 58655,
          "ELEMENT_SET_NO": 999,
          "REV_AT_EPOCH": 1311,
          "BSTAR": 0,
          "MEAN_MOTION_DOT": -3.1e-07,
          "MEAN_MOTION_DDOT": 0
        }
      },
      "geometry": {
        "type": "Point",
        "coordinates": [
          NaN,
          NaN
        ]
      }
    },
    {
      "type": "Feature",
      "properties": {
        "norad_id": 61186,
        "name": "BEIDOU-3 M25 (C47)",
        "group": "beidou",
        "lat": NaN,
        "lon": NaN,
        "alt_km": NaN,
        "timestamp": "2025-12-01T03:12:44.536797+00:00",
        "meta": {
          "OBJECT_NAME": "BEIDOU-3 M25 (C47)",
          "OBJECT_ID": "2024-168B",
          "EPOCH": "2025-11-30T18:47:42.055296",
          "MEAN_MOTION": 1.86229829,
          "ECCENTRICITY": 0.0005568,
          "INCLINATION": 54.6532,
          "RA_OF_ASC_NODE": 309.1351,
          "ARG_OF_PERICENTER": 293.3015,
          "MEAN_ANOMALY": 65.2557,
          "EPHEMERIS_TYPE": 0,
          "CLASSIFICATION_TYPE": "U",
          "NORAD_CAT_ID": 61186,
          "ELEMENT_SET_NO": 999,
          "REV_AT_EPOCH": 808,
          "BSTAR": 0,
          "MEAN_MOTION_DOT": -5.4e-07,
          "MEAN_MOTION_DDOT": 0
        }
      },
      "geometry": {
        "type": "Point",
        "coordinates": [
          NaN,
          NaN
        ]
      }
    },
    {
      "type": "Feature",
      "properties": {
        "norad_id": 61187,
        "name": "BEIDOU-3 M27 (C49)",
        "group": "beidou",
        "lat": NaN,
        "lon": NaN,
        "alt_km": NaN,
        "timestamp": "2025-12-01T03:12:44.536805+00:00",
        "meta": {
          "OBJECT_NAME": "BEIDOU-3 M27 (C49)",
          "OBJECT_ID": "2024-168C",
          "EPOCH": "2025-11-30T14:00:13.607712",
          "MEAN_MOTION": 1.86229977,
          "ECCENTRICITY": 0.0002285,
          "INCLINATION": 54.6489,
          "RA_OF_ASC_NODE": 309.1257,
          "ARG_OF_PERICENTER": 326.9603,
          "MEAN_ANOMALY": 32.6883,
          "EPHEMERIS_TYPE": 0,
          "CLASSIFICATION_TYPE": "U",
          "NORAD_CAT_ID": 61187,
          "ELEMENT_SET_NO": 999,
          "REV_AT_EPOCH": 555,
          "BSTAR": 0,
          "MEAN_MOTION_DOT": -5.3e-07,
          "MEAN_MOTION_DDOT": 0
        }
      },
      "geometry": {
        "type": "Point",
        "coordinates": [
          NaN,
          NaN
        ]
      }
    }
  ]
}