BEIDOU-3 G4             
1 56564U 23066A   25334.82255922 -.00000089  00000+0  00000+0 0  9991
2 56564   0.8432 301.0056 0003454 232.1996 352.9397  1.00271249  9405
BEIDOU-3 M28            
1 58654U 23207A   25333.01410384 -.00000025  00000+0  00000+0 0  9995
2 58654  55.5726  69.0664 0001878 263.2463  96.7424  1.86229638 13114
BEIDOU-3 M26            
1 58655U 23207B   25333.88575912 -.00000031  00000+0  00000+0 0  9997
2 58655  55.5753  69.0231 0003371 249.3814 110.5900  1.86231123 13116
BEIDOU-3 M25            
1 61186U 24168B   25334.78312564 -.00000054  00000+0  00000+0 0  9994
2 61186  54.6532 309.1351 0005568 293.3015  65.2557  1.86229829  8081
BEIDOU-3 M27            
1 61187U 24168C   25334.58349083 -.00000053  00000+0  00000+0 0  9998
2 61187  54.6489 309.1257 0002285 326.9603  32.6883  1.86229977  5550
